GLOBALSTAR M045         
1 25676U 99019A   25223.51790494 -.00000063  00000+0  26557-3 0  9994
2 25676  51.9961 147.5647 0000708  11.2352 159.8452 12.27064566200186
GLOBALSTAR M019         
1 25677U 99019B   25223.42456351 -.00000154  00000+0 -66786-3 0  9996
2 25677  51.9876 282.0868 0001491  92.9267 280.3001 12.13875361191854
GLOBALSTAR M044         
1 25678U 99019C   25223.34308597 -.00000083  00000+0  26416-5 0  9994
2 25678  51.9940 240.5734 0006132 148.3967 224.9234 11.90254187177899
GLOBALSTAR M025         
1 25770U 99031A   25223.60607791 -.00000066  00000+0  43872-4 0  9993
2 25770  51.9838  30.8885 0001222 222.9987 213.3343 11.22563971487932
GLOBALSTAR M049         
1 25771U 99031B   25223.53626057 -.00000098  00000+0 -11234-2 0  9993
2 25771  51.9880  68.5964 0003595  92.7700 267.3508 11.12117107123582
GLOBALSTAR M052         
1 25773U 99031D   25223.29660373 -.00000105  00000+0 -13107-2 0  9997
2 25773  51.9841 177.0376 0002715 274.5953 255.9149 11.15060176484655
